"OBJECT_NAME","OBJECT_ID","EPOCH","MEAN_MOTION","ECCENTRICITY","INCLINATION","RA_OF_ASC_NODE","ARG_OF_PERICENTER","MEAN_ANOMALY","EPHEMERIS_TYPE","CLASSIFICATION_TYPE","NORAD_CAT_ID","ELEMENT_SET_NO","REV_AT_EPOCH","BSTAR","MEAN_MOTION_DOT","MEAN_MOTION_DDOT"
"STARLINK-6061","2023-078AE","2025-03-24T08:56:44.872512",14.98329644,0.0002981,69.9992,127.5626,268.2526,91.8292,0,"U",56795,999,10070,-0.00002186,-0.00000354,0
"STARLINK-6058","2023-078AG","2025-03-24T22:03:59.607360",14.98332177,0.0003201,70.0014,146.5227,276.6037,83.4757,0,"U",56797,999,10054,0.00043017,0.00005044,0
"STARLINK-6068","2023-078AH","2025-03-24T12:26:54.223296",15.13339298,0.0003162,70.0015,126.0828,271.2483,88.8321,0,"U",56798,999,10142,-0.00082898,-0.00014885,0
"STARLINK-5953","2023-078AJ","2025-03-24T21:27:53.791776",14.98362148,0.000317,70.0001,146.4393,270.226,89.8536,0,"U",56799,999,10054,-0.00050166,-0.00006079,0
"STARLINK-6036","2023-078AK","2025-03-24T11:57:07.351200",14.98333255,0.0003073,70,147.4668,261.1191,98.962,0,"U",56800,999,10048,-0.000076889,-0.0000101,0
"STARLINK-6087","2023-078AL","2025-03-24T12:20:48.192288",14.98329927,0.0003061,69.999,127.2549,272.5404,87.5404,0,"U",56801,999,10072,-0.000081226,-0.00001062,0
"STARLINK-6029","2023-078AN","2025-03-25T03:40:25.792320",14.98324996,0.0003165,70,145.7394,267.4046,92.6751,0,"U",56803,999,10058,0.00017084,0.00001946,0
"STARLINK-6069","2023-078AP","2025-03-24T20:33:29.529792",14.9833517,0.000287,69.9992,126.4429,264.0876,95.9956,0,"U",56804,999,10103,-0.000076357,-0.00001004,0
"STARLINK-6064","2023-078AQ","2025-03-24T20:39:30.139200",14.98337513,0.0002961,69.9993,126.4555,271.5433,88.5387,0,"U",56805,999,10103,-0.000068693,-0.00000913,0
"STARLINK-6072","2023-078AR","2025-03-24T16:33:41.597856",14.97699545,0.0002513,70.0009,106.7807,146.3285,213.8033,0,"U",56806,999,10124,-0.0066845,-0.00077696,0
"STARLINK-6073","2023-078AS","2025-03-24T12:08:47.164416",14.9832814,0.0002849,69.9991,127.2252,264.1465,95.9369,0,"U",56807,999,10098,-0.00022772,-0.00002809,0
"STARLINK-6042","2023-078AT","2025-03-25T01:06:02.990880",14.98332618,0.000398,69.9986,76.1166,266.6621,93.4082,0,"U",56808,999,10230,0.000088546,0.00000964,0
"STARLINK-6031","2023-078AV","2025-03-24T21:09:52.879392",14.98339378,0.0003301,69.9997,146.3978,275.8771,84.2011,0,"U",56810,999,10028,-0.000084447,-0.00001101,0
"STARLINK-6067","2023-078BB","2025-03-24T20:03:26.430048",14.98333659,0.0002995,69.9992,126.3682,268.8578,91.2238,0,"U",56816,999,10077,0.000075323,0.00000806,0
"STARLINK-6028","2023-078BD","2025-03-24T07:50:45.627072",14.98330433,0.0003145,69.9997,147.6701,266.2071,93.8729,0,"U",56818,999,10089,-0.000027332,-0.00000419,0
"STARLINK-30119","2023-079A","2025-03-25T00:31:56.639712",15.02555342,0.0001567,43.0018,207.5112,272.8995,87.1668,0,"U",56823,999,9995,0.00085639,0.0001139,0
"STARLINK-30120","2023-079B","2025-03-25T00:27:08.510400",15.02552779,0.0001256,43.0024,207.4889,271.5669,88.503,0,"U",56824,999,9996,-0.000088883,-0.00001405,0
"STARLINK-30084","2023-079C","2025-03-24T17:59:27.055680",15.02542568,0.0001019,42.9999,208.9074,257.6047,102.4681,0,"U",56825,999,9991,0.00081856,0.00010873,0
"STARLINK-30114","2023-079D","2025-03-25T00:46:17.844672",15.02526087,0.0002397,43.0017,207.3948,257.5713,102.4861,0,"U",56826,999,9996,0.00016072,0.00001967,0
"STARLINK-30151","2023-079E","2025-03-24T19:25:34.830624",15.02544281,0.0000829,42.9998,208.4885,266.7994,93.2754,0,"U",56827,999,9993,0.00032178,0.00004147,0
