STARLINK-6061           
1 56795U 23078AE  25083.37274158 -.00000354  00000+0 -21860-4 0  9991
2 56795  69.9992 127.5626 0002981 268.2526  91.8292 14.98329644100707
STARLINK-6058           
1 56797U 23078AG  25083.91943990  .00005044  00000+0  43017-3 0  9996
2 56797  70.0014 146.5227 0003201 276.6037  83.4757 14.98332177100541
STARLINK-6068           
1 56798U 23078AH  25083.51868314 -.00014885  00000+0 -82898-3 0  9994
2 56798  70.0015 126.0828 0003162 271.2483  88.8321 15.13339298101428
STARLINK-5953           
1 56799U 23078AJ  25083.89437259 -.00006079  00000+0 -50166-3 0  9995
2 56799  70.0001 146.4393 0003170 270.2260  89.8536 14.98362148100541
STARLINK-6036           
1 56800U 23078AK  25083.49800175 -.00001010  00000+0 -76889-4 0  9996
2 56800  70.0000 147.4668 0003073 261.1191  98.9620 14.98333255100488
STARLINK-6087           
1 56801U 23078AL  25083.51444667 -.00001062  00000+0 -81226-4 0  9998
2 56801  69.9990 127.2549 0003061 272.5404  87.5404 14.98329927100720
STARLINK-6029           
1 56803U 23078AN  25084.15307630  .00001946  00000+0  17084-3 0  9998
2 56803  70.0000 145.7394 0003165 267.4046  92.6751 14.98324996100587
STARLINK-6069           
1 56804U 23078AP  25083.85659178 -.00001004  00000+0 -76357-4 0  9998
2 56804  69.9992 126.4429 0002870 264.0876  95.9956 14.98335170101036
STARLINK-6064           
1 56805U 23078AQ  25083.86076550 -.00000913  00000+0 -68693-4 0  9999
2 56805  69.9993 126.4555 0002961 271.5433  88.5387 14.98337513101030
STARLINK-6072           
1 56806U 23078AR  25083.69006479 -.00077696  00000+0 -66845-2 0  9991
2 56806  70.0009 106.7807 0002513 146.3285 213.8033 14.97699545101249
STARLINK-6073           
1 56807U 23078AS  25083.50610144 -.00002809  00000+0 -22772-3 0  9998
2 56807  69.9991 127.2252 0002849 264.1465  95.9369 14.98328140100982
STARLINK-6042           
1 56808U 23078AT  25084.04586795  .00000964  00000+0  88546-4 0  9993
2 56808  69.9986  76.1166 0003980 266.6621  93.4082 14.98332618102309
STARLINK-6031           
1 56810U 23078AV  25083.88186203 -.00001101  00000+0 -84447-4 0  9999
2 56810  69.9997 146.3978 0003301 275.8771  84.2011 14.98339378100285
STARLINK-6067           
1 56816U 23078BB  25083.83572257  .00000806  00000+0  75323-4 0  9990
2 56816  69.9992 126.3682 0002995 268.8578  91.2238 14.98333659100770
STARLINK-6028           
1 56818U 23078BD  25083.32691698 -.00000419  00000+0 -27332-4 0  9996
2 56818  69.9997 147.6701 0003145 266.2071  93.8729 14.98330433100896
STARLINK-30119          
1 56823U 23079A   25084.02218333  .00011390  00000+0  85639-3 0  9993
2 56823  43.0018 207.5112 0001567 272.8995  87.1668 15.02555342 99951
STARLINK-30120          
1 56824U 23079B   25084.01884850 -.00001405  00000+0 -88883-4 0  9999
2 56824  43.0024 207.4889 0001256 271.5669  88.5030 15.02552779 99968
STARLINK-30084          
1 56825U 23079C   25083.74961870  .00010873  00000+0  81856-3 0  9996
2 56825  42.9999 208.9074 0001019 257.6047 102.4681 15.02542568100249
STARLINK-30114          
1 56826U 23079D   25084.03215098  .00001967  00000+0  16072-3 0  9996
2 56826  43.0017 207.3948 0002397 257.5713 102.4861 15.02526087 99969
STARLINK-30151          
1 56827U 23079E   25083.80943091  .00004147  00000+0  32178-3 0  9990
2 56827  42.9998 208.4885 0000829 266.7994  93.2754 15.02544281 99930
